{"type": "FeatureCollection", "features": [ {"type": "Feature", "properties": {"norad_id": 31383, "name": "FENGYUN 1C DEB", "group": "fengyun-1c-debris", "lat": 78.2315420021573, "lon": -8.91946596620578, "alt_km": 884.7388785671965, "timestamp": "2025-12-05T04:52:15.573737+00:00", "meta": {"OBJECT_NAME": "FENGYUN 1C DEB", "OBJECT_ID": "1999-025BSP", "EPOCH": "2025-11-30T15:52:15.780864", "MEAN_MOTION": 14.05658237, "ECCENTRICITY": 0.01079896, "INCLINATION": 99.0689, "RA_OF_ASC_NODE": 36.5888, "ARG_OF_PERICENTER": 351.3472, "MEAN_ANOMALY": 159.9983, "EPHEMERIS_TYPE": 0, "CLASSIFICATION_TYPE": "U", "NORAD_CAT_ID": 31383, "ELEMENT_SET_NO": 999, "REV_AT_EPOCH": 95199, "BSTAR": 0.0006307032, "MEAN_MOTION_DOT": 1.037e-05, "MEAN_MOTION_DDOT": 0}, "tle": {"line1": "1 31383U 99025BSP 25334.66129376  .00001037  00000+0  63070-3 0  9999", "line2": "2 31383  99.0689  36.5888 0107989 351.3472 159.9983 14.05658237951996"}}, "geometry": {"type": "Point", "coordinates": [-8.91946596620578, 78.2315420021573]}}, {"type": "Feature", "properties": {"norad_id": 31384, "name": "FENGYUN 1C DEB", "group": "fengyun-1c-debris", "lat": -53.4313873405381, "lon": -42.45828059485844, "alt_km": 1082.2786067022498, "timestamp": "2025-12-05T04:52:15.573746+00:00", "meta": {"OBJECT_NAME": "FENGYUN 1C DEB", "OBJECT_ID": "1999-025BSQ", "EPOCH": "2025-11-30T21:25:39.153792", "MEAN_MOTION": 13.85935935, "ECCENTRICITY": 0.04406256, "INCLINATION": 98.4563, "RA_OF_ASC_NODE": 302.0658, "ARG_OF_PERICENTER": 74.1899, "MEAN_ANOMALY": 342.7882, "EPHEMERIS_TYPE": 0, "CLASSIFICATION_TYPE": "U", "NORAD_CAT_ID": 31384, "ELEMENT_SET_NO": 999, "REV_AT_EPOCH": 92860, "BSTAR": 0.0021210825, "MEAN_MOTION_DOT": 5.211e-05, "MEAN_MOTION_DDOT": 0}, "tle": {"line1": "1 31384U 99025BSQ 25334.89281428  .00005211  00000+0  21211-2 0  9990", "line2": "2 31384  98.4563 302.0658 0440625  74.1899 342.7882 13.85935935928609"}}, "geometry": {"type": "Point", "coordinates": [-42.45828059485844, -53.4313873405381]}}, {"type": "Feature", "properties": {"norad_id": 31385, "name": "FENGYUN 1C DEB", "group": "fengyun-1c-debris", "lat": -27.918461802339717, "lon": 73.75355458050964, "alt_km": 776.4854806550675, "timestamp": "2025-12-05T04:52:15.573755+00:00", "meta": {"OBJECT_NAME": "FENGYUN 1C DEB", "OBJECT_ID": "1999-025BSR", "EPOCH": "2025-12-04T12:27:07.031232", "MEAN_MOTION": 14.43983375, "ECCENTRICITY": 0.0134855, "INCLINATION": 98.9548, "RA_OF_ASC_NODE": 68.241, "ARG_OF_PERICENTER": 79.8946, "MEAN_ANOMALY": 299.1199, "EPHEMERIS_TYPE": 0, "CLASSIFICATION_TYPE": "U", "NORAD_CAT_ID": 31385, "ELEMENT_SET_NO": 999, "REV_AT_EPOCH": 98496, "BSTAR": 0.00031492, "MEAN_MOTION_DOT": 1.149e-05, "MEAN_MOTION_DDOT": 0}, "tle": {"line1": "1 31385U 99025BSR 25338.51883138  .00001149  00000+0  31492-3 0  9999", "line2": "2 31385  98.9548  68.2410 0134855  79.8946 299.1199 14.43983375984968"}}, "geometry": {"type": "Point", "coordinates": [73.75355458050964, -27.918461802339717]}}, {"type": "Feature", "properties": {"norad_id": 31386, "name": "FENGYUN 1C DEB", "group": "fengyun-1c-debris", "lat": 22.069275355640517, "lon": 178.28996499411372, "alt_km": 1063.807368194619, "timestamp": "2025-12-05T04:52:15.573765+00:00", "meta": {"OBJECT_NAME": "FENGYUN 1C DEB", "OBJECT_ID": "1999-025BSS", "EPOCH": "2025-11-30T23:36:27.682272", "MEAN_MOTION": 13.85933209, "ECCENTRICITY": 0.01976819, "INCLINATION": 98.4408, "RA_OF_ASC_NODE": 351.0324, "ARG_OF_PERICENTER": 316.7324, "MEAN_ANOMALY": 41.8452, "EPHEMERIS_TYPE": 0, "CLASSIFICATION_TYPE": "U", "NORAD_CAT_ID": 31386, "ELEMENT_SET_NO": 999, "REV_AT_EPOCH": 93699, "BSTAR": 0.0021212341, "MEAN_MOTION_DOT": 2.802e-05, "MEAN_MOTION_DDOT": 0}, "tle": {"line1": "1 31386U 99025BSS 25334.98365373  .00002802  00000+0  21212-2 0  9998", "line2": "2 31386  98.4408 351.0324 0197681 316.7324  41.8452 13.85933209936995"}}, "geometry": {"type": "Point", "coordinates": [178.28996499411372, 22.069275355640517]}}, {"type": "Feature", "properties": {"norad_id": 31387, "name": "FENGYUN 1C DEB", "group": "fengyun-1c-debris", "lat": 51.15128960346533, "lon": 49.03385851075677, "alt_km": 764.3520365296981, "timestamp": "2025-12-05T04:52:15.573775+00:00", "meta": {"OBJECT_NAME": "FENGYUN 1C DEB", "OBJECT_ID": "1999-025BST", "EPOCH": "2025-12-03T09:46:58.419840", "MEAN_MOTION": 14.13553434, "ECCENTRICITY": 0.02413381, "INCLINATION": 99.1685, "RA_OF_ASC_NODE": 215.625, "ARG_OF_PERICENTER": 197.5416, "MEAN_ANOMALY": 161.7313, "EPHEMERIS_TYPE": 0, "CLASSIFICATION_TYPE": "U", "NORAD_CAT_ID": 31387, "ELEMENT_SET_NO": 999, "REV_AT_EPOCH": 96165, "BSTAR": 0.00033502767, "MEAN_MOTION_DOT": 7.83e-06, "MEAN_MOTION_DDOT": 0}, "tle": {"line1": "1 31387U 99025BST 25337.40762060  .00000783  00000+0  33503-3 0  9996", "line2": "2 31387  99.1685 215.6250 0241338 197.5416 161.7313 14.13553434961659"}}, "geometry": {"type": "Point", "coordinates": [49.03385851075677, 51.15128960346533]}}, {"type": "Feature", "properties": {"norad_id": 31388, "name": "FENGYUN 1C DEB", "group": "fengyun-1c-debris", "lat": 22.69137107878993, "lon": 151.07474041761844, "alt_km": 853.8237863461263, "timestamp": "2025-12-05T04:52:15.573784+00:00", "meta": {"OBJECT_NAME": "FENGYUN 1C DEB", "OBJECT_ID": "1999-025BSU", "EPOCH": "2025-12-03T06:07:53.129856", "MEAN_MOTION": 14.07419415, "ECCENTRICITY": 0.0046166, "INCLINATION": 98.8042, "RA_OF_ASC_NODE": 325.4619, "ARG_OF_PERICENTER": 228.0098, "MEAN_ANOMALY": 147.5361, "EPHEMERIS_TYPE": 0, "CLASSIFICATION_TYPE": "U", "NORAD_CAT_ID": 31388, "ELEMENT_SET_NO": 999, "REV_AT_EPOCH": 96308, "BSTAR": 0.00030121, "MEAN_MOTION_DOT": 4.68e-06, "MEAN_MOTION_DDOT": 0}, "tle": {"line1": "1 31388U 99025BSU 25337.25547604  .00000468  00000+0  30121-3 0  9998", "line2": "2 31388  98.8042 325.4619 0046166 228.0098 147.5361 14.07419415963087"}}, "geometry": {"type": "Point", "coordinates": [151.07474041761844, 22.69137107878993]}}, {"type": "Feature", "properties": {"norad_id": 31389, "name": "FENGYUN 1C DEB", "group": "fengyun-1c-debris", "lat": 76.03770827864619, "lon": 104.07551228904282, "alt_km": 699.0581972597029, "timestamp": "2025-12-05T04:52:15.573793+00:00", "meta": {"OBJECT_NAME": "FENGYUN 1C DEB", "OBJECT_ID": "1999-025BSV", "EPOCH": "2025-12-03T09:53:27.656160", "MEAN_MOTION": 14.60249637, "ECCENTRICITY": 0.00305164, "INCLINATION": 99.0426, "RA_OF_ASC_NODE": 141.9537, "ARG_OF_PERICENTER": 216.4518, "MEAN_ANOMALY": 173.9957, "EPHEMERIS_TYPE": 0, "CLASSIFICATION_TYPE": "U", "NORAD_CAT_ID": 31389, "ELEMENT_SET_NO": 999, "REV_AT_EPOCH": 96361, "BSTAR": 0.006818357, "MEAN_MOTION_DOT": 0.00033216, "MEAN_MOTION_DDOT": 0}, "tle": {"line1": "1 31389U 99025BSV 25337.41212565  .00033216  00000+0  68184-2 0  9998", "line2": "2 31389  99.0426 141.9537 0030516 216.4518 173.9957 14.60249637963616"}}, "geometry": {"type": "Point", "coordinates": [104.07551228904282, 76.03770827864619]}}, {"type": "Feature", "properties": {"norad_id": 31410, "name": "FENGYUN 1C DEB", "group": "fengyun-1c-debris", "lat": -65.98793051550645, "lon": -59.98595355152822, "alt_km": 712.3712342452809, "timestamp": "2025-12-05T04:52:15.573802+00:00", "meta": {"OBJECT_NAME": "FENGYUN 1C DEB", "OBJECT_ID": "1999-025BSW", "EPOCH": "2025-12-01T10:16:43.576896", "MEAN_MOTION": 14.44660711, "ECCENTRICITY": 0.01107684, "INCLINATION": 98.8365, "RA_OF_ASC_NODE": 136.529, "ARG_OF_PERICENTER": 320.6498, "MEAN_ANOMALY": 107.8693, "EPHEMERIS_TYPE": 0, "CLASSIFICATION_TYPE": "U", "NORAD_CAT_ID": 31410, "ELEMENT_SET_NO": 999, "REV_AT_EPOCH": 97588, "BSTAR": 0.0008135917, "MEAN_MOTION_DOT": 2.987e-05, "MEAN_MOTION_DDOT": 0}, "tle": {"line1": "1 31410U 99025BSW 25335.42828214  .00002987  00000+0  81359-3 0  9997", "line2": "2 31410  98.8365 136.5290 0110768 320.6498 107.8693 14.44660711975886"}}, "geometry": {"type": "Point", "coordinates": [-59.98595355152822, -65.98793051550645]}}, {"type": "Feature", "properties": {"norad_id": 31411, "name": "FENGYUN 1C DEB", "group": "fengyun-1c-debris", "lat": 77.57615473152208, "lon": -95.62107526854165, "alt_km": 863.4196861872215, "timestamp": "2025-12-05T04:52:15.573811+00:00", "meta": {"OBJECT_NAME": "FENGYUN 1C DEB", "OBJECT_ID": "1999-025BSX", "EPOCH": "2025-12-04T10:12:27.156384", "MEAN_MOTION": 14.27956705, "ECCENTRICITY": 0.0100589, "INCLINATION": 98.6706, "RA_OF_ASC_NODE": 39.7656, "ARG_OF_PERICENTER": 279.3699, "MEAN_ANOMALY": 144.255, "EPHEMERIS_TYPE": 0, "CLASSIFICATION_TYPE": "U", "NORAD_CAT_ID": 31411, "ELEMENT_SET_NO": 999, "REV_AT_EPOCH": 94361, "BSTAR": 0.00089068, "MEAN_MOTION_DOT": 2.286e-05, "MEAN_MOTION_DDOT": 0}, "tle": {"line1": "1 31411U 99025BSX 25338.42531431  .00002286  00000+0  89068-3 0  9990", "line2": "2 31411  98.6706  39.7656 0100589 279.3699 144.2550 14.27956705943612"}}, "geometry": {"type": "Point", "coordinates": [-95.62107526854165, 77.57615473152208]}}, {"type": "Feature", "properties": {"norad_id": 31412, "name": "FENGYUN 1C DEB", "group": "fengyun-1c-debris", "lat": -31.08469425590781, "lon": 98.27466515112336, "alt_km": 916.0755392249157, "timestamp": "2025-12-05T04:52:15.573820+00:00", "meta": {"OBJECT_NAME": "FENGYUN 1C DEB", "OBJECT_ID": "1999-025BSY", "EPOCH": "2025-11-28T06:38:13.979616", "MEAN_MOTION": 14.09684254, "ECCENTRICITY": 0.00844356, "INCLINATION": 98.5498, "RA_OF_ASC_NODE": 276.8981, "ARG_OF_PERICENTER": 16.021, "MEAN_ANOMALY": 344.3602, "EPHEMERIS_TYPE": 0, "CLASSIFICATION_TYPE": "U", "NORAD_CAT_ID": 31412, "ELEMENT_SET_NO": 999, "REV_AT_EPOCH": 60788, "BSTAR": 0.0021882226, "MEAN_MOTION_DOT": 3.927e-05, "MEAN_MOTION_DDOT": 0}, "tle": {"line1": "1 31412U 99025BSY 25332.27655069  .00003927  00000+0  21882-2 0  9994", "line2": "2 31412  98.5498 276.8981 0084435  16.0210 344.3602 14.09684254607885"}}, "geometry": {"type": "Point", "coordinates": [98.27466515112336, -31.08469425590781]}}]}